[{"OBJECT_NAME":"STARLINK-35074","OBJECT_ID":"2025-192U","EPOCH":"2026-03-09T21:16:46.062336","MEAN_MOTION":15.30210364,"ECCENTRICITY":7.971e-5,"INCLINATION":53.1588,"RA_OF_ASC_NODE":231.4828,"ARG_OF_PERICENTER":59.4601,"MEAN_ANOMALY":300.6479,"EPHEMERIS_TYPE":0,"CLASSIFICATION_TYPE":"U","NORAD_CAT_ID":65422,"ELEMENT_SET_NO":999,"REV_AT_EPOCH":2941,"BSTAR":0.0010780898,"MEAN_MOTION_DOT":0.00031717,"MEAN_MOTION_DDOT":0},{"OBJECT_NAME":"PEGASUS DEB","OBJECT_ID":"1994-029AER","EPOCH":"2026-02-26T06:39:21.581568","MEAN_MOTION":15.03561005,"ECCENTRICITY":0.01227406,"INCLINATION":81.7323,"RA_OF_ASC_NODE":356.2383,"ARG_OF_PERICENTER":77.7128,"MEAN_ANOMALY":283.7806,"EPHEMERIS_TYPE":0,"CLASSIFICATION_TYPE":"U","NORAD_CAT_ID":39306,"ELEMENT_SET_NO":999,"REV_AT_EPOCH":9218,"BSTAR":0.0046128236,"MEAN_MOTION_DOT":0.00074995,"MEAN_MOTION_DDOT":0}]
